NORAD_CAT_ID,OBJECT_NAME,OBJECT_TYPE,EPOCH,MEAN_MOTION,ECCENTRICITY,INCLINATION,RA_OF_ASC_NODE,ARG_OF_PERICENTER,MEAN_ANOMALY,BSTAR,MEAN_MOTION_DOT,MEAN_MOTION_DDOT,TLE_LINE0,TLE_LINE1,TLE_LINE2,SEMIMAJOR_AXIS,PERIOD,APOGEE,PERIGEE,DECAYED
54196.0,STARLINK-5237,PAYLOAD,2023-10-30 14:18:18,15.08834726,0.0001541,53.2164,259.6,88.0737,272.0432,-8.955e-06,-4.3e-06,0.0,0 STARLINK-5237,1 54196U 22141AR  23303.59604436 -.00000430  00000-0 -89550-5 0  9994,2 54196  53.2164 259.6000 0001541  88.0737 272.0432 15.08834726 56234,6917.897,95.438,540.828,538.695,0.0
54196.0,STARLINK-5237,PAYLOAD,2023-10-31 14:09:05,15.08837946,0.000164,53.2175,255.1409,90.124,269.994,0.00011247,1.502e-05,0.0,0 STARLINK-5237,1 54196U 22141AR  23304.58964821  .00001502  00000-0  11247-3 0  9996,2 54196  53.2175 255.1409 0001640  90.1240 269.9940 15.08837946 56150,6917.887,95.438,540.886,538.617,0.0
54196.0,STARLINK-5237,PAYLOAD,2023-10-31 20:30:38,15.08837618,0.0001681,53.2171,253.9559,81.2414,278.8768,0.00014657,2.045e-05,0.0,0 STARLINK-5237,1 54196U 22141AR  23304.85461047  .00002045  00000-0  14657-3 0  9999,2 54196  53.2171 253.9559 0001681  81.2414 278.8768 15.08837618 56420,6917.888,95.438,540.916,538.59,0.0
54196.0,STARLINK-5237,PAYLOAD,2023-11-01 06:02:56,15.08849701,0.000152,53.2163,252.1695,89.2189,270.8977,0.00037705,5.719e-05,0.0,0 STARLINK-5237,1 54196U 22141AR  23305.25204584  .00005719  00000-0  37705-3 0  9995,2 54196  53.2163 252.1695 0001520  89.2189 270.8977 15.08849701 56488,6917.851,95.437,540.767,538.664,0.0
54196.0,STARLINK-5237,PAYLOAD,2023-11-01 13:59:53,15.08834811,0.0001841,53.2179,250.6803,87.6679,272.4524,9.0514e-05,1.153e-05,0.0,0 STARLINK-5237,1 54196U 22141AR  23305.58325238  .00001153  00000-0  90514-4 0  9997,2 54196  53.2179 250.6803 0001841  87.6679 272.4524 15.08834811 56304,6917.896,95.438,541.035,538.488,0.0
54196.0,STARLINK-5237,PAYLOAD,2023-11-01 20:21:25,15.0883786,0.0001443,53.2178,249.4916,91.7077,268.408,0.00014439,2.011e-05,0.0,0 STARLINK-5237,1 54196U 22141AR  23305.84821177  .00002011  00000-0  14439-3 0  9994,2 54196  53.2178 249.4916 0001443  91.7077 268.4080 15.08837860 56578,6917.887,95.438,540.75,538.754,0.0
54196.0,STARLINK-5237,PAYLOAD,2023-11-02 02:42:57,15.08848098,0.0001224,53.2166,248.3046,89.7589,270.3544,0.00031991,4.808e-05,0.0,0 STARLINK-5237,1 54196U 22141AR  23306.11316779  .00004808  00000-0  31991-3 0  9990,2 54196  53.2166 248.3046 0001224  89.7589 270.3544 15.08848098 56616,6917.856,95.437,540.567,538.874,0.0
54196.0,STARLINK-5237,PAYLOAD,2023-11-02 13:50:39,15.08849513,0.0001392,53.2166,246.2237,88.1428,271.9723,0.00029221,4.367e-05,0.0,0 STARLINK-5237,1 54196U 22141AR  23306.57684623  .00004367  00000-0  29221-3 0  9999,2 54196  53.2166 246.2237 0001392  88.1428 271.9723 15.08849513 56457,6917.851,95.437,540.679,538.753,0.0
54196.0,STARLINK-5237,PAYLOAD,2023-11-02 20:12:12,15.08845916,0.0001658,53.2191,245.0338,96.1467,263.9714,0.00020198,2.928e-05,0.0,0 STARLINK-5237,1 54196U 22141AR  23306.84180786  .00002928  00000-0  20198-3 0  9995,2 54196  53.2191 245.0338 0001658  96.1467 263.9714 15.08845916 56725,6917.862,95.437,540.874,538.58,0.0
54196.0,STARLINK-5237,PAYLOAD,2023-11-03 05:44:30,15.08856268,0.0001636,53.2179,243.2476,114.0388,246.0775,0.00029862,4.47e-05,0.0,0 STARLINK-5237,1 54196U 22141AR  23307.23924082  .00004470  00000-0  29862-3 0  9995,2 54196  53.2179 243.2476 0001636 114.0388 246.0775 15.08856268 56554,6917.831,95.437,540.827,538.564,0.0
54196.0,STARLINK-5237,PAYLOAD,2023-11-04 02:24:31,15.08842963,0.0001297,53.2169,239.3833,91.5133,268.6008,8.854e-05,1.122e-05,0.0,0 STARLINK-5237,1 54196U 22141AR  23308.10036715  .00001122  00000-0  88540-4 0  9999,2 54196  53.2169 239.3833 0001297  91.5133 268.6008 15.08842963 56912,6917.871,95.437,540.634,538.839,0.0
54196.0,STARLINK-5237,PAYLOAD,2023-11-04 11:56:50,15.08845626,0.000129,53.217,237.5974,90.9593,269.1547,0.00018381,2.639e-05,0.0,0 STARLINK-5237,1 54196U 22141AR  23308.49780646  .00002639  00000-0  18381-3 0  9999,2 54196  53.2170 237.5974 0001290  90.9593 269.1547 15.08845626 56740,6917.863,95.437,540.621,538.836,0.0
54196.0,STARLINK-5237,PAYLOAD,2023-11-05 11:47:37,15.08855489,0.0001396,53.2168,233.1392,92.2387,267.8765,0.00037448,5.679e-05,0.0,0 STARLINK-5237,1 54196U 22141AR  23309.49140150  .00005679  00000-0  37448-3 0  9992,2 54196  53.2168 233.1392 0001396  92.2387 267.8765 15.08855489 57124,6917.833,95.437,540.664,538.732,0.0
54196.0,STARLINK-5237,PAYLOAD,2023-11-05 22:55:18,15.08869648,0.000151,53.2165,231.0555,75.0551,285.0608,0.00054042,8.33e-05,0.0,0 STARLINK-5237,1 54196U 22141AR  23309.95507362  .00008330  00000-0  54042-3 0  9991,2 54196  53.2165 231.0555 0001510  75.0551 285.0608 15.08869648 56960,6917.79,95.436,540.699,538.61,0.0
54196.0,STARLINK-5237,PAYLOAD,2023-11-06 03:41:26,15.08904283,0.0001483,53.2164,230.1639,82.834,277.2821,0.0012735,0.00020074,0.0,0 STARLINK-5237,1 54196U 22141AR  23310.15377810  .00020074  00000-0  12735-2 0  9999,2 54196  53.2164 230.1639 0001483  82.8340 277.2821 15.08904283 57228,6917.684,95.433,540.575,538.523,0.0
54196.0,STARLINK-5237,PAYLOAD,2023-11-07 01:56:51,15.08805259,0.0001187,53.216,226.0012,97.3609,262.7518,-0.0012816,-0.00020607,0.0,0 STARLINK-5237,1 54196U 22141AR  23311.08115518 -.00020607  00000-0 -12816-2 0  9991,2 54196  53.2160 226.0012 0001187  97.3609 262.7518 15.08805259 57363,6917.987,95.44,540.673,539.03,0.0
54196.0,STARLINK-5237,PAYLOAD,2023-11-07 11:29:11,15.08810655,0.0001191,53.2169,224.2184,101.4657,258.6469,-0.00071119,-0.00011579,0.0,0 STARLINK-5237,1 54196U 22141AR  23311.47860385 -.00011579  00000-0 -71119-3 0  9993,2 54196  53.2169 224.2184 0001191 101.4657 258.6469 15.08810655 57429,6917.97,95.439,540.659,539.011,0.0
54196.0,STARLINK-5237,PAYLOAD,2023-11-08 03:23:02,15.08825852,0.0001244,53.2171,221.2449,109.888,250.2246,0.00026245,3.89e-05,0.0,0 STARLINK-5237,1 54196U 22141AR  23312.14100679  .00003890  00000-0  26245-3 0  9996,2 54196  53.2171 221.2449 0001244 109.8880 250.2246 15.08825852 57529,6917.924,95.438,540.649,538.928,0.0
54196.0,STARLINK-5237,PAYLOAD,2023-11-08 22:27:42,15.08820993,0.0001275,53.2169,217.679,118.6762,241.4358,0.00056703,8.743e-05,0.0,0 STARLINK-5237,1 54196U 22141AR  23312.93590531  .00008743  00000-0  56703-3 0  9997,2 54196  53.2169 217.6790 0001275 118.6762 241.4358 15.08820993 57410,6917.938,95.439,540.686,538.921,0.0
54196.0,STARLINK-5237,PAYLOAD,2023-11-09 00:03:05,15.08825477,0.000112,53.2166,217.3796,106.0525,254.059,0.00059819,9.241e-05,0.0,0 STARLINK-5237,1 54196U 22141AR  23313.00214383  .00009241  00000-0  59819-3 0  9999,2 54196  53.2166 217.3796 0001120 106.0525 254.0590 15.08825477 57653,6917.925,95.438,540.565,539.015,0.0
54196.0,STARLINK-5237,PAYLOAD,2023-11-09 22:18:28,15.08844547,9.19e-05,53.2165,213.2163,94.825,265.2847,0.000465,7.121e-05,0.0,0 STARLINK-5237,1 54196U 22141AR  23313.92949941  .00007121  00000-0  46500-3 0  9993,2 54196  53.2165 213.2163 0000919  94.8250 265.2847 15.08844547 57567,6917.866,95.437,540.367,539.096,0.0
54196.0,STARLINK-5237,PAYLOAD,2023-11-10 11:01:33,15.08851422,9.07e-05,53.2173,210.8366,93.133,266.9766,0.00028543,4.259e-05,0.0,0 STARLINK-5237,1 54196U 22141AR  23314.45941360  .00004259  00000-0  28543-3 0  9995,2 54196  53.2173 210.8366 0000907  93.1330 266.9766 15.08851422 57874,6917.845,95.437,540.338,539.083,0.0
54196.0,STARLINK-5237,PAYLOAD,2023-11-10 22:09:15,15.08846004,0.000141,53.2159,208.7547,101.0467,259.0684,8.5262e-05,1.069e-05,0.0,0 STARLINK-5237,1 54196U 22141AR  23314.92309562  .00001069  00000-0  85262-4 0  9997,2 54196  53.2159 208.7547 0001410 101.0467 259.0684 15.08846004 57710,6917.862,95.437,540.702,538.752,0.0
54196.0,STARLINK-5237,PAYLOAD,2023-11-11 02:55:24,15.08849958,0.0001405,53.2163,207.8632,87.6031,272.5122,0.00010969,1.459e-05,0.0,0 STARLINK-5237,1 54196U 22141AR  23315.12181282  .00001459  00000-0  10969-3 0  9991,2 54196  53.2163 207.8632 0001405  87.6031 272.5122 15.08849958 57976,6917.85,95.437,540.687,538.743,0.0
54196.0,STARLINK-5237,PAYLOAD,2023-11-11 20:24:39,15.08839822,0.0001205,53.2163,204.5889,91.3378,268.7752,3.6935e-05,3e-06,0.0,0 STARLINK-5237,1 54196U 22141AR  23315.85045780  .00000300  00000-0  36935-4 0  9999,2 54196  53.2163 204.5889 0001205  91.3378 268.7752 15.08839822 58086,6917.881,95.438,540.58,538.912,0.0
54196.0,STARLINK-5237,PAYLOAD,2023-11-11 22:00:02,15.08838194,0.0001236,53.2168,204.2917,91.1885,268.9249,-1.5675e-06,-3.13e-06,0.0,0 STARLINK-5237,1 54196U 22141AR  23315.91669785 -.00000313  00000-0 -15675-5 0  9998,2 54196  53.2168 204.2917 0001236  91.1885 268.9249 15.08838194 57864,6917.886,95.438,540.606,538.896,0.0
54196.0,STARLINK-5237,PAYLOAD,2023-11-12 09:07:44,15.08839269,0.0001385,53.2161,202.2122,97.6028,262.5121,3.1635e-05,2.16e-06,0.0,0 STARLINK-5237,1 54196U 22141AR  23316.38037803  .00000216  00000-0  31635-4 0  9993,2 54196  53.2161 202.2122 0001385  97.6028 262.5121 15.08839269 57939,6917.883,95.438,540.706,538.789,0.0
54196.0,STARLINK-5237,PAYLOAD,2023-11-12 17:04:40,15.08834364,0.0001445,53.2168,200.7262,96.8079,263.3077,7.9046e-05,9.7e-06,0.0,0 STARLINK-5237,1 54196U 22141AR  23316.71158389  .00000970  00000-0  79046-4 0  9998,2 54196  53.2168 200.7262 0001445  96.8079 263.3077 15.08834364 58210,6917.898,95.438,540.762,538.763,0.0
54196.0,STARLINK-5237,PAYLOAD,2023-11-12 21:50:50,15.08837802,0.0001476,53.2168,199.8343,98.158,261.9579,9.6373e-05,1.246e-05,0.0,0 STARLINK-5237,1 54196U 22141AR  23316.91030159  .00001246  00000-0  96373-4 0  9993,2 54196  53.2168 199.8343 0001476  98.1580 261.9579 15.08837802 58013,6917.887,95.438,540.773,538.731,0.0
54196.0,STARLINK-5237,PAYLOAD,2023-11-12 23:26:12,15.08841613,0.0001438,53.217,199.5378,96.2977,263.8178,0.00014032,1.946e-05,0.0,0 STARLINK-5237,1 54196U 22141AR  23316.97653853  .00001946  00000-0  14032-3 0  9999,2 54196  53.2170 199.5378 0001438  96.2977 263.8178 15.08841613 58255,6917.875,95.437,540.735,538.746,0.0
